[{"OBJECT_NAME":"STARLINK-5181","OBJECT_ID":"2022-136V","EPOCH":"2026-03-09T22:10:29.743104","MEAN_MOTION":15.08832087,"ECCENTRICITY":0.00013371,"INCLINATION":53.219,"RA_OF_ASC_NODE":342.7628,"ARG_OF_PERICENTER":105.276,"MEAN_ANOMALY":254.838,"EPHEMERIS_TYPE":0,"CLASSIFICATION_TYPE":"U","NORAD_CAT_ID":54070,"ELEMENT_SET_NO":999,"REV_AT_EPOCH":18688,"BSTAR":-1.316999e-5,"MEAN_MOTION_DOT":-4.97e-6,"MEAN_MOTION_DDOT":0},{"OBJECT_NAME":"OBJECT H","OBJECT_ID":"2025-313H","EPOCH":"2026-03-09T22:36:06.294528","MEAN_MOTION":15.02722765,"ECCENTRICITY":0.0085698,"INCLINATION":97.296,"RA_OF_ASC_NODE":142.3052,"ARG_OF_PERICENTER":313.0136,"MEAN_ANOMALY":46.393,"EPHEMERIS_TYPE":0,"CLASSIFICATION_TYPE":"U","NORAD_CAT_ID":67255,"ELEMENT_SET_NO":999,"REV_AT_EPOCH":1072,"BSTAR":0.0002424576,"MEAN_MOTION_DOT":3.444e-5,"MEAN_MOTION_DDOT":0}]
